ORBCOMM FM37            
1 33064U 08031E   24172.70106161  .00001538  00000+0  24678-3 0  9992
2 33064  48.4410 258.3206 0006719 269.8577 249.8220 14.76686845860569
ORBCOMM FM40            
1 33065U 08031F   24172.58873022  .00002017  00000+0  30481-3 0  9998
2 33065  48.4421 247.8199 0008094 278.1921 223.5408 14.78064748861034
ORBCOMM FM109           
1 40086U 14040A   24172.59200993  .00001055  00000+0  27094-3 0  9995
2 40086  47.0044 282.3356 0000915 112.4135 247.6847 14.56752958528319
ORBCOMM FM107           
1 40087U 14040B   24173.17464500  .00001132  00000+0  28784-3 0  9990
2 40087  47.0061 280.5595 0000488  15.2990 344.7909 14.56765319528513
ORBCOMM FM111           
1 40089U 14040D   24172.88994613  .00001073  00000+0  15874-3 0  9992
2 40089  47.0065  28.0658 0033501 266.1454  93.5611 14.82065964536558
ORBCOMM FM104           
1 40090U 14040E   24172.77677050  .00000739  00000+0  20730-3 0  9990
2 40090  47.0066 311.8121 0016850 351.3478   8.7113 14.55239934527959
